QIANFAN-57              
1 62787U 25016C   25353.26878743  .00000144  00000+0  20514-3 0  9990
2 62787  88.9788 102.5262 0002445 117.0531 243.0870 13.50978351 48087
QIANFAN-58              
1 62788U 25016D   25353.23996703  .00000145  00000+0  20606-3 0  9998
2 62788  88.9758 102.3589 0012531 329.1514  30.8900 13.50980248 48128
QIANFAN-59              
1 62789U 25016E   25353.26461914  .00000146  00000+0  20768-3 0  9993
2 62789  88.9781 102.4315 0012984 333.1457  26.9021 13.50981746 48120
QIANFAN-60              
1 62790U 25016F   25353.22359450  .00000041  00000+0  44870-4 0  9997
2 62790  88.9762 102.4061 0014370 328.8701  31.1598 13.50985211 48109
QIANFAN-61              
1 62791U 25016G   25353.25639816  .00000144  00000+0  20422-3 0  9998
2 62791  88.9829 102.5700 0013370 328.4540  31.5809 13.50982132 48121
QIANFAN-62              
1 62792U 25016H   25353.26052806  .00000141  00000+0  20032-3 0  9992
2 62792  88.9776 102.4345 0014746 328.4102  31.6163 13.50978599 48114
QIANFAN-63              
1 62793U 25016J   25353.28520916  .00000132  00000+0  18538-3 0  9995
2 62793  88.9783 102.3839 0014917 334.0987  25.9415 13.50985374 48153
QIANFAN-64              
1 62794U 25016K   25353.25227532  .00000142  00000+0  20215-3 0  9997
2 62794  88.9769 102.3605 0012716 327.1796  32.8565 13.50980450 48147
